{"Hospital1":{"Name":"Hospital1","AddressLine1":"Address Line 1 - 1","AddressLine2":"Address Line 2 - 1","Postcode":"CF5 1EF"},"Hospital2":{"Name":"Hospital2","AddressLine1":"Address Line 1 - 2","AddressLine2":"Address Line 2 - 2","Postcode":"CF5 2EF"},"Hospital3":{"Name":"Hospital3","AddressLine1":"Address Line 1 - 3","AddressLine2":"Address Line 2 - 3","Postcode":"CF5 3EJ"},"Hospital4":{"Name":"Hospital4","AddressLine1":"Address Line 1 - 4","AddressLine2":"Address Line 2 - 4","Postcode":"CF5 4EG"},"Hospital5":{"Name":"Hospital5","AddressLine1":"Address Line 1 - 5","AddressLine2":"Address Line 2 - 5","Postcode":"CF5 5EF"},"Hospital6":{"Name":"Hospital6","AddressLine1":"Address Line 1 - 6","AddressLine2":"Address Line 2 - 6","Postcode":"CF5 6EF"},"Hospital7":{"Name":"Hospital7","AddressLine1":"Address Line 1 - 7","AddressLine2":"Address Line 2 - 7","Postcode":"CF5 7EF"},"Hospital8":{"Name":"Hospital8","AddressLine1":"Address Line 1 - 8","AddressLine2":"Address Line 2 - 8","Postcode":"CF5 8EF"},"Hospital9":{"Name":"Hospital9","AddressLine1":"Address Line 1 - 9","AddressLine2":"Address Line 2 - 9","Postcode":"CF5 9EF"},"Hospital10":{"Name":"Hospital10","AddressLine1":"Address Line 1 - 10","AddressLine2":"Address Line 2 - 10","Postcode":"CF5 10EF"}}